C/2017 A3 (Elenin),e,98.4347,97.6702,304.0590,43.30511,0.0034586,0.91077251,11.5261,03/14.0/2026,2000,g  9.5,4.0
# From MPEC 2026-E44
C/2017 AB5 (PANSTARRS),h,02/20.1013/2018,32.4410,42.6072,78.4277,1.000639,9.212974,2000,5.5,4.0
# From MPEC 2026-E44
C/2017 B3 (LINEAR),e,54.2538,2.2867,284.6986,2653,0.0000072,0.99851854,0.0000,01/29.7555/2019,2000,g  6.0,4.0
# From MPC103847
P/2017 B4 (PANSTARRS),e,20.0584,121.4578,11.0197,4.410520,0.1064068,0.36495152,359.9130,01/05.0/2017,2000,g 14.5,4.0
# From MPEC 2026-E44
C/2017 C1 (NEOWISE),e,65.7455,357.2467,109.9782,20.55564,0.0105757,0.92801514,35.3010,03/14.0/2026,2000,g 18.0,4.0
# From MPEC 2026-E44
C/2017 C2 (PANSTARRS),e,118.5887,249.5784,138.7298,95.38831,0.0010579,0.97430836,0.0000,01/17.4886/2017,2000,g 14.0,4.0
# From MPEC 2026-E44
P/2017 D1 (Fuls),e,20.7717,82.1841,8.1433,4.819872,0.0931431,0.43776926,329.9043,03/14.0/2026,2000,g 14.0,4.0
# From MPEC 2026-E44
C/2017 D2 (Barros),e,31.1948,331.2704,334.4533,2711,0.0000070,0.99907303,0.0000,07/10.0338/2017,2000,g 11.0,4.0
# From MPEC 2026-E44
C/2017 D3 (ATLAS),e,125.6093,186.5553,340.4503,27342,0.0000002,0.99981914,0.0000,04/24.5435/2017,2000,g  8.0,4.0
# From MPEC 2026-E44
P/2017 D4 (PANSTARRS),e,10.5651,264.9652,212.1050,7.541782,0.0475875,0.63080371,165.0929,03/14.0/2026,2000,g 13.0,4.0
# From MPEC 2026-E44
C/2017 D5 (PANSTARRS),e,130.9445,92.4019,287.5264,109.3713,0.0008617,0.98015460,0.0000,01/04.4786/2017,2000,g 16.0,4.0
# From MPEC 2026-E44
C/2017 E1 (Borisov),h,04/05.3489/2017,14.4825,143.0318,152.4916,1.003001,0.919911,2000,14.0,4.0
# From MPEC 2026-E44
C/2017 E2 (Tsuchinshan),e,79.0118,11.4771,89.1898,21.53924,0.0098596,0.89205308,35.3766,03/14.0/2026,2000,g 11.5,4.0
# From MPEC 2026-E44
C/2017 E3 (PANSTARRS),h,06/06.8303/2017,70.6664,220.7541,334.1484,1.004243,5.899936,2000,6.5,4.0
# From MPEC 2026-E44
C/2017 E4 (Lovejoy),h,04/19.6295/2017,88.0095,222.8986,87.3453,1.001062,0.505807,2000,17.0,4.0
# From MPEC 2026-E44
C/2017 E5 (Lemmon),e,122.6864,206.2810,306.5271,354.6021,0.0001476,0.99504331,0.0000,06/12.8493/2016,2000,g 13.0,4.0
# From MPEC 2026-E44
C/2017 F1 (Lemmon),h,11/25.9673/2017,146.5833,158.7935,64.9340,1.001265,4.526686,2000,10.5,4.0
# From MPEC 2026-E44
C/2017 F2 (PANSTARRS),h,11/26.8446/2017,42.5358,38.6536,134.7522,1.002061,6.899024,2000,7.5,4.0
# From MPEC 2026-E44
P/2017 FL36 (PANSTARRS),e,15.7004,313.4572,90.6915,2.928755,0.1966434,0.03410782,42.2060,03/14.0/2026,2000,g 14.7,4.0
# From MPEC 2026-E44
P/2017 G1 (PANSTARRS),e,5.1534,247.1181,225.2975,7.191680,0.0511044,0.65101539,184.5738,03/14.0/2026,2000,g 13.5,4.0
# From MPEC 2026-E44
P/2017 G2 (PANSTARRS),e,47.9687,79.8756,105.1963,8.032396,0.0432949,0.64951441,138.4217,03/14.0/2026,2000,g 13.0,4.0
# From MPEC 2026-E44
C/2017 G3 (PANSTARRS),e,158.9640,279.3563,72.7566,265.6595,0.0002276,0.99030563,0.0000,04/12.2999/2017,2000,g 14.0,4.0
# From MPEC 2026-E44
C/2017 K1 (PANSTARRS),h,03/12.9379/2018,154.0272,225.6926,4.1058,1.000084,7.260994,2000,7.0,4.0
# From MPEC 2026-E44
C/2017 K2 (PANSTARRS),e,87.6397,88.2217,236.1501,1192,0.0000240,0.99848947,0.0000,12/17.9904/2022,2000,g  1.5,4.0
# From MPEC 2026-E44
P/2017 K3 (Gasparovic),e,4.2723,354.1295,253.2502,5.590582,0.0745622,0.57904284,240.8407,03/14.0/2026,2000,g 14.5,4.0
# From MPEC 2026-E44
C/2017 K4 (ATLAS),e,16.6020,299.0255,15.3113,28.50501,0.0064762,0.90611703,19.3762,03/14.0/2026,2000,g 10.0,4.0
# From MPEC 2026-E44
C/2017 K5 (PANSTARRS),h,03/24.6088/2020,82.2862,102.4479,171.8771,1.002828,7.669472,2000,5.0,4.0
# From MPEC 2026-E44
C/2017 K6 (Jacques),e,57.2030,84.7487,304.1489,1636,0.0000149,0.99876670,0.0000,01/02.0500/2018,2000,g 11.0,4.0
# From MPEC 2026-E44
C/2017 M3 (PANSTARRS),e,77.4883,6.9095,110.1780,169.8083,0.0004454,0.97271581,0.0000,04/30.8271/2017,2000,g 10.5,4.0
# From MPEC 2026-E44
C/2017 M4 (ATLAS),e,105.6408,65.9838,167.3465,42191,0.0000001,0.99992340,0.0000,01/17.3580/2019,2000,g  6.0,4.0
# From MPEC 2026-E44
C/2017 M5 (TOTAS),h,05/30.6320/2018,15.8706,216.3022,92.7800,1.001903,6.008329,2000,6.5,4.0
# From MPEC 2026-E44
C/2017 O1 (ASASSN),e,39.8398,25.7566,21.0052,448.1677,0.0001039,0.99664601,0.0000,10/16.7327/2017,2000,g 11.0,4.0
# From MPEC 2026-E44
P/2017 P1 (PANSTARRS),e,7.6886,221.3530,122.9540,7.919365,0.0442251,0.30861793,125.0207,03/14.0/2026,2000,g 10.0,4.0
# From MPEC 2026-E44
C/2017 P2 (PANSTARRS),e,50.0532,165.7478,132.3651,1419,0.0000184,0.99824938,0.0000,12/02.5795/2017,2000,g 10.0,4.0
# From MPEC 2026-E44
C/2017 S2 (PANSTARRS),e,12.6668,62.3129,306.4394,20.74295,0.0104327,0.82417362,32.5576,03/14.0/2026,2000,g 13.0,4.0
# From MPEC 2026-E44
C/2017 S3 (PANSTARRS),h,08/16.8472/2018,98.7500,170.3775,255.5750,1.000086,0.202249,2000,11.0,4.0
# From MPEC 2026-E44
C/2017 S6 (Catalina),h,03/01.3928/2018,152.8320,131.5070,135.2914,1.001431,1.541610,2000,12.5,4.0
# From MPEC 2026-E44
C/2017 S7 (Lemmon),h,05/25.7868/2017,124.2286,262.6541,187.7653,1.000026,7.642566,2000,7.0,4.0
# From MPEC 2026-E44
P/2017 S8 (PANSTARRS),e,29.8431,191.4754,254.9743,2.778378,0.2128223,0.39116581,271.3256,03/14.0/2026,2000,g 16.0,4.0
# From MPEC 2026-E44
C/2017 T1 (Heinze),e,97.0207,103.0135,96.9465,3807,0.0000042,0.99984858,0.0000,02/22.3586/2018,2000,g 14.5,4.0
# From MPEC 2026-E44
C/2017 T2 (PANSTARRS),e,57.2632,64.3994,92.7754,1731,0.0000137,0.99907500,0.0000,05/06.6684/2020,2000,g  5.0,4.0
# From MPEC 2026-E44
C/2017 T3 (ATLAS),e,88.1764,230.1491,246.6969,1451,0.0000178,0.99943909,0.0000,07/22.1983/2018,2000,g 10.0,4.0
# From MPEC 2026-E44
P/2017 TW13 (Lemmon),e,44.8835,322.0493,120.1010,7.138992,0.0516712,0.71043664,145.7147,03/14.0/2026,2000,g 15.0,2.0
# From MPEC 2026-E44
C/2017 U2 (Fuls),e,95.4654,149.8727,147.9336,3438,0.0000049,0.99804554,0.0000,08/28.2272/2017,2000,g  9.0,4.0
# From MPEC 2026-E44
P/2017 U3 (PANSTARRS),e,15.9263,165.0467,296.6330,4.918428,0.0903576,0.10096153,227.6831,03/14.0/2026,2000,g 11.0,4.0
# From MPEC 2026-E44
C/2017 U4 (PANSTARRS),e,158.2037,245.9349,159.2488,15504,0.0000005,0.99949982,0.0000,09/22.5855/2018,2000,g  7.0,4.0
# From MPEC 2026-E44
C/2017 U5 (PANSTARRS),e,18.9276,162.9964,262.3541,17.01554,0.0140422,0.74522441,42.1985,03/14.0/2026,2000,g 12.0,4.0
# From MPEC 2026-E44
C/2017 U7 (PANSTARRS),h,09/16.0917/2019,142.6394,276.3203,326.3561,1.002480,6.412295,2000,8.3,2.0
# From MPEC 2026-E44
C/2017 W2 (Leonard),e,98.3043,312.6574,168.9217,13.60956,0.0196308,0.70938708,60.0169,03/14.0/2026,2000,g 11.0,4.0
# From MPEC 2026-E44
P/2017 W3 (Gibbs),e,18.1983,210.0241,327.8030,7.816693,0.0450993,0.50747639,132.4198,03/14.0/2026,2000,g 10.5,4.0
# From MPEC 2026-E44
C/2017 X1 (PANSTARRS),e,31.3481,251.1651,282.9435,30.97620,0.0057169,0.85017135,16.1657,03/14.0/2026,2000,g 10.0,4.0
# From MPEC 2026-E44
C/2017 Y1 (PANSTARRS),e,55.2120,307.2511,134.5249,3453,0.0000049,0.99892377,0.0000,09/01.3695/2017,2000,g 11.5,4.0
# From MPEC 2026-E44
C/2017 Y2 (PANSTARRS),h,11/04.6449/2020,128.4442,66.0107,147.7364,1.000653,4.616656,2000,15.0,4.0
# From MPEC 2026-E44
P/2017 Y3 (Leonard),e,27.6498,154.0775,67.2430,9.791821,0.0321669,0.86999301,95.1297,03/14.0/2026,2000,g 16.5,4.0
# From MPEC 2026-E44
C/2018 A1 (PANSTARRS),e,53.4830,336.3939,96.4110,25.25915,0.0077638,0.90456339,23.7902,03/14.0/2026,2000,g 12.5,4.0
# From MPEC 2026-E44
C/2018 A3 (ATLAS),e,139.6424,194.3949,86.5882,351.7401,0.0001494,0.99062403,0.0000,01/08.5343/2019,2000,g  8.5,4.0
# From MPEC 2026-E44
C/2018 A4 (PANSTARRS),e,3.1537,97.5357,356.0698,12.22030,0.0230718,0.80447291,65.8104,03/14.0/2026,2000,g 14.0,4.0
# From MPEC 2026-E44
P/2018 A5 (PANSTARRS),e,23.6328,87.7830,359.5844,5.623851,0.0739015,0.52443853,228.0671,03/14.0/2026,2000,g 15.0,4.0
# From MPEC 2026-E44
C/2018 A6 (Gibbs),e,77.1936,340.4913,264.2295,14.99078,0.0169812,0.79896209,41.4069,03/14.0/2026,2000,g  9.0,4.0
# From MPEC 2026-E44
C/2018 B1 (Lemmon),e,162.4643,133.1884,68.6292,14117,0.0000006,0.99963483,0.0000,03/27.9062/2018,2000,g  9.0,4.0
# From MPEC 2026-E44
P/2018 C1 (Lemmon-Read),e,5.0987,270.1285,235.8959,5.648762,0.0734132,0.53286865,215.7118,03/14.0/2026,2000,g 13.5,4.0
# From MPEC 2026-E44
C/2018 C2 (Lemmon),e,34.4606,91.3803,133.6534,2226,0.0000094,0.99912739,0.0000,05/31.1819/2018,2000,g 13.0,4.0
# From MPEC 2026-E44
C/2018 DO4 (Lemmon),e,160.4381,251.4439,176.4999,25.51247,0.0076485,0.90489313,18.3641,03/14.0/2026,2000,g 11.0,4.0
# From MPEC 2026-E44
C/2018 E1 (ATLAS),e,72.4365,146.5850,299.4132,54.16129,0.0024727,0.95021419,7.1380,03/14.0/2026,2000,g 10.5,4.0
# From MPEC 2026-E44
C/2018 E2 (Barros),e,97.6004,67.1439,277.5596,1607,0.0000153,0.99754833,0.0000,12/19.3581/2017,2000,g 10.5,4.0
# From MPEC 2026-E44
C/2018 EN4 (NEOWISE),e,82.2255,136.1688,34.9730,17.89331,0.0130217,0.91855175,36.9965,03/14.0/2026,2000,g 15.0,4.0
# From MPEC 2026-E44
C/2018 EF9 (Lemmon),e,84.8919,172.7726,72.6083,410.6122,0.0001185,0.99619160,0.0000,05/19.6508/2018,2000,g 18.0,2.0
# From MPEC 2026-E44
C/2018 F1 (Grauer),e,46.2188,177.3484,71.3527,215.5174,0.0003115,0.98614324,0.0000,12/10.2271/2018,2000,g 11.5,4.0
# From MPEC 2026-E44
C/2018 F4 (PANSTARRS),e,78.1829,26.5623,263.1792,1573,0.0000158,0.99780787,0.0000,11/30.4342/2019,2000,g 11.0,6.0
# From MPEC 2026-E44
C/2018 F4-A,e,78.1831,26.5625,263.1759,1535,0.0000164,0.99775344,0.0000,11/30.4219/2019,2000,g 11.0,6.0
# From MPEC 2026-E44
C/2018 F4-B,e,78.1840,26.5620,263.1618,1600,0.0000154,0.99784447,0.0000,11/30.3592/2019,2000,g 11.0,6.0
# From MPEC 2026-E44
P/2018 H2 (PANSTARRS),e,7.4470,67.5538,119.4362,4.417364,0.1061596,0.53972416,320.8522,03/14.0/2026,2000,g 16.6,2.0
# From MPEC 2026-E44
C/2018 K1 (Weiland),e,164.1811,260.2620,325.0886,30.05556,0.0059816,0.93809459,17.3197,03/14.0/2026,2000,g 14.9,4.0
# From MPEC 2021-R75
C/2018 KJ3 (Lemmon),e,136.6228,91.6942,217.4992,634.0729,0.0000617,0.99429624,0.0000,09/07.7963/2019,2000,g 12.2,2.0
# From MPEC 2026-E44
C/2018 L2 (ATLAS),e,67.2608,243.0088,56.3277,230.2337,0.0002821,0.99251960,0.0000,11/28.5881/2018,2000,g 10.0,4.0
# From MPEC 2026-E44
